0 COSMOS 2038
1 20232U 89074A   13281.47016238  .00000034  00000-0  12319-3 0  2059
2 20232 082.5704 285.1865 0012220 169.5555 358.1769 12.65325382 85576
0 COSMOS 2038
1 20232U 89074A   13283.51032514  .00000038  00000-0  14779-3 0  2068
2 20232 082.5702 283.8759 0012298 165.0930 291.2843 12.65325491 85834
0 COSMOS 2038
1 20232U 89074A   13285.72993954  .00000031  00000-0  10986-3 0  2077
2 20232 082.5702 282.4500 0012380 160.1973 321.8500 12.65325945 86114
0 COSMOS 2038
1 20232U 89074A   13288.18047089  .00000001  00000-0 -54145-4 0  2084
2 20232 082.5705 280.8754 0012468 154.9180 324.1419 12.65326159 86425
0 COSMOS 2038
1 20232U 89074A   13290.48583294 -.00000002  00000-0 -69674-4 0  2099
2 20232 082.5710 279.3943 0012546 149.8880 025.2456 12.65326031 86712
0 COSMOS 2038
1 20232U 89074A   13292.52696322  .00000010  00000-0 -47594-5 0  2101
2 20232 082.5713 278.0830 0012601 145.3609 322.8268 12.65325846 86976
0 COSMOS 2038
1 20232U 89074A   13294.73781645  .00000052  00000-0  22140-3 0  2113
2 20232 082.5715 276.6629 0012657 140.7739 313.1988 12.65325896 87251
